start=new Date('2022-06-08T00:00:00.000Z').valueOf();
sats=[{"NORAD_CAT_ID":"52296","PERIOD":"91.868","DECAY_DATE":null,"CENTER_NAME":"EARTH","TLE_LINE1":"1 52296U 22041AM  22158.91667824 -.00715761  00000-0 -70551-2 0  9993","ARG_OF_PERICENTER":"54.9264","LAUNCH_DATE":"2022-04-21","SEMIMAJOR_AXIS":"6744.284","EPHEMERIS_TYPE":"0","TLE_LINE2":"2 52296  53.2174 141.1432 0001204  54.9264  14.3123 15.67468964  1305","INCLINATION":"53.2174","MEAN_MOTION_DOT":"-0.00715761","REV_AT_EPOCH":"130","CLASSIFICATION_TYPE":"U","BSTAR":"-0.00705510000000","MEAN_ANOMALY":"14.3123","APOAPSIS":"366.961","PERIAPSIS":"365.337","MEAN_MOTION":"15.67468964","COUNTRY_CODE":"US","REF_FRAME":"TEME","OBJECT_NAME":"STARLINK-3766","SITE":"AFETR","OBJECT_TYPE":"PAYLOAD","MEAN_ELEMENT_THEORY":"SGP4","RA_OF_ASC_NODE":"141.1432","EPOCH":"2022-06-07T22:00:00.999936","FILE":"3485136","GP_ID":"205598468","OBJECT_ID":"2022-041AM","MEAN_MOTION_DDOT":"0.0000000000000","RCS_SIZE":"LARGE","TIME_SYSTEM":"UTC","ELEMENT_SET_NO":"999","ECCENTRICITY":"0.00012040"},{"OBJECT_ID":"2022-041AN","MEAN_MOTION_DDOT":"0.0000000000000","RCS_SIZE":"LARGE","TIME_SYSTEM":"UTC","ELEMENT_SET_NO":"999","ECCENTRICITY":"0.00011980","OBJECT_NAME":"STARLINK-3758","SITE":"AFETR","OBJECT_TYPE":"PAYLOAD","MEAN_ELEMENT_THEORY":"SGP4","RA_OF_ASC_NODE":"141.1311","EPOCH":"2022-06-07T22:00:00.999936","FILE":"3485136","GP_ID":"205598365","REV_AT_EPOCH":"130","MEAN_MOTION_DOT":"-0.00715748","BSTAR":"-0.00706170000000","CLASSIFICATION_TYPE":"U","MEAN_ANOMALY":"9.4870","APOAPSIS":"367.024","PERIAPSIS":"365.408","MEAN_MOTION":"15.67445717","COUNTRY_CODE":"US","REF_FRAME":"TEME","NORAD_CAT_ID":"52297","PERIOD":"91.869","DECAY_DATE":null,"CENTER_NAME":"EARTH","TLE_LINE1":"1 52297U 22041AN  22158.91667824 -.00715748  00000-0 -70617-2 0  9992","ARG_OF_PERICENTER":"56.4680","LAUNCH_DATE":"2022-04-21","SEMIMAJOR_AXIS":"6744.351","EPHEMERIS_TYPE":"0","TLE_LINE2":"2 52297  53.2173 141.1311 0001198  56.4680   9.4870 15.67445717  1307","INCLINATION":"53.2173"},{"EPOCH":"2022-06-07T22:00:00.999936","MEAN_ELEMENT_THEORY":"SGP4","RA_OF_ASC_NODE":"141.1457","OBJECT_NAME":"STARLINK-3760","SITE":"AFETR","OBJECT_TYPE":"PAYLOAD","GP_ID":"205598164","FILE":"3485136","RCS_SIZE":"LARGE","MEAN_MOTION_DDOT":"0.0000000000000","OBJECT_ID":"2022-041AP","ECCENTRICITY":"0.00011510","ELEMENT_SET_NO":"999","TIME_SYSTEM":"UTC","TLE_LINE1":"1 52298U 22041AP  22158.91667824 -.00715849  00000-0 -70548-2 0  9998","ARG_OF_PERICENTER":"61.2995","CENTER_NAME":"EARTH","DECAY_DATE":null,"NORAD_CAT_ID":"52298","PERIOD":"91.868","INCLINATION":"53.2174","SEMIMAJOR_AXIS":"6744.271","LAUNCH_DATE":"2022-04-21","EPHEMERIS_TYPE":"0","TLE_LINE2":"2 52298  53.2174 141.1457 0001151  61.2995   8.5958 15.67473647  1302","APOAPSIS":"366.912","REV_AT_EPOCH":"130","MEAN_MOTION_DOT":"-0.00715849","BSTAR":"-0.00705480000000","CLASSIFICATION_TYPE":"U","MEAN_ANOMALY":"8.5958","COUNTRY_CODE":"US","REF_FRAME":"TEME","MEAN_MOTION":"15.67473647","PERIAPSIS":"365.360"},{"GP_ID":"205597932","FILE":"3485136","EPOCH":"2022-06-07T22:00:00.999936","RA_OF_ASC_NODE":"141.1411","MEAN_ELEMENT_THEORY":"SGP4","SITE":"AFETR","OBJECT_TYPE":"PAYLOAD","OBJECT_NAME":"STARLINK-3759","ELEMENT_SET_NO":"999","ECCENTRICITY":"0.00011670","TIME_SYSTEM":"UTC","RCS_SIZE":"LARGE","MEAN_MOTION_DDOT":"0.0000000000000","OBJECT_ID":"2022-041AQ","INCLINATION":"53.2173","TLE_LINE2":"2 52299  53.2173 141.1411 0001167  58.9263   9.6557 15.67464309  1302","EPHEMERIS_TYPE":"0","LAUNCH_DATE":"2022-04-21","SEMIMAJOR_AXIS":"6744.298","ARG_OF_PERICENTER":"58.9263","TLE_LINE1":"1 52299U 22041AQ  22158.91667824 -.00715759  00000-0 -70565-2 0  9998","CENTER_NAME":"EARTH","DECAY_DATE":null,"PERIOD":"91.868","NORAD_CAT_ID":"52299","REF_FRAME":"TEME","COUNTRY_CODE":"US","MEAN_MOTION":"15.67464309","PERIAPSIS":"365.376","APOAPSIS":"366.950","BSTAR":"-0.00705650000000","CLASSIFICATION_TYPE":"U","MEAN_ANOMALY":"9.6557","MEAN_MOTION_DOT":"-0.00715759","REV_AT_EPOCH":"130"},{"GP_ID":"205598548","FILE":"3485136","EPOCH":"2022-06-07T22:00:00.999936","RA_OF_ASC_NODE":"141.1506","MEAN_ELEMENT_THEORY":"SGP4","OBJECT_TYPE":"PAYLOAD","SITE":"AFETR","OBJECT_NAME":"STARLINK-3769","ECCENTRICITY":"0.00010520","ELEMENT_SET_NO":"999","TIME_SYSTEM":"UTC","RCS_SIZE":"LARGE","MEAN_MOTION_DDOT":"0.0000000000000","OBJECT_ID":"2022-041AR","INCLINATION":"53.2174","TLE_LINE2":"2 52300  53.2174 141.1506 0001052  78.3772 352.8312 15.67483007  1303","SEMIMAJOR_AXIS":"6744.244","LAUNCH_DATE":"2022-04-21","EPHEMERIS_TYPE":"0","ARG_OF_PERICENTER":"78.3772","TLE_LINE1":"1 52300U 22041AR  22158.91667824 -.00715923  00000-0 -70531-2 0  9997","CENTER_NAME":"EARTH","DECAY_DATE":null,"PERIOD":"91.867","NORAD_CAT_ID":"52300","REF_FRAME":"TEME","COUNTRY_CODE":"US","MEAN_MOTION":"15.67483007","PERIAPSIS":"365.400","APOAPSIS":"366.819","MEAN_ANOMALY":"352.8312","BSTAR":"-0.00705310000000","CLASSIFICATION_TYPE":"U","REV_AT_EPOCH":"130","MEAN_MOTION_DOT":"-0.00715923"},{"PERIAPSIS":"365.390","MEAN_MOTION":"15.67459641","REF_FRAME":"TEME","COUNTRY_CODE":"US","MEAN_ANOMALY":"8.5943","BSTAR":"-0.00705790000000","CLASSIFICATION_TYPE":"U","MEAN_MOTION_DOT":"-0.00715763","REV_AT_EPOCH":"130","APOAPSIS":"366.963","TLE_LINE2":"2 52301  53.2173 141.1385 0001166  59.3311   8.5943 15.67459641  1304","LAUNCH_DATE":"2022-04-21","EPHEMERIS_TYPE":"0","SEMIMAJOR_AXIS":"6744.311","INCLINATION":"53.2173","PERIOD":"91.868","NORAD_CAT_ID":"52301","DECAY_DATE":null,"CENTER_NAME":"EARTH","TLE_LINE1":"1 52301U 22041AS  22158.91667824 -.00715763  00000-0 -70579-2 0  9992","ARG_OF_PERICENTER":"59.3311","TIME_SYSTEM":"UTC","ECCENTRICITY":"0.00011660","ELEMENT_SET_NO":"999","OBJECT_ID":"2022-041AS","MEAN_MOTION_DDOT":"0.0000000000000","RCS_SIZE":"LARGE","FILE":"3485136","GP_ID":"205598029","OBJECT_TYPE":"PAYLOAD","SITE":"AFETR","OBJECT_NAME":"STARLINK-3768","RA_OF_ASC_NODE":"141.1385","MEAN_ELEMENT_THEORY":"SGP4","EPOCH":"2022-06-07T22:00:00.999936"},{"MEAN_ANOMALY":"109.3000","BSTAR":"0.00050673000000","CLASSIFICATION_TYPE":"U","REV_AT_EPOCH":"130","MEAN_MOTION_DOT":"0.00071078","APOAPSIS":"352.404","MEAN_MOTION":"15.73186069","REF_FRAME":"TEME","COUNTRY_CODE":"US","PERIAPSIS":"347.196","CENTER_NAME":"EARTH","TLE_LINE1":"1 52302U 22041AT  22158.91667824  .00071078  00000-0  50673-3 0  9999","ARG_OF_PERICENTER":"2.6023","PERIOD":"91.534","NORAD_CAT_ID":"52302","DECAY_DATE":null,"INCLINATION":"53.2155","TLE_LINE2":"2 52302  53.2155 141.0430 0003871   2.6023 109.3000 15.73186069  1303","LAUNCH_DATE":"2022-04-21","SEMIMAJOR_AXIS":"6727.935","EPHEMERIS_TYPE":"0","RCS_SIZE":"LARGE","OBJECT_ID":"2022-041AT","MEAN_MOTION_DDOT":"0.0000000000000","ELEMENT_SET_NO":"999","ECCENTRICITY":"0.00038710","TIME_SYSTEM":"UTC","RA_OF_ASC_NODE":"141.0430","MEAN_ELEMENT_THEORY":"SGP4","EPOCH":"2022-06-07T22:00:00.999936","OBJECT_TYPE":"PAYLOAD","SITE":"AFETR","OBJECT_NAME":"STARLINK-3564","GP_ID":"205597829","FILE":"3485136"},{"COUNTRY_CODE":"US","REF_FRAME":"TEME","MEAN_MOTION":"15.67478275","PERIAPSIS":"365.300","APOAPSIS":"366.945","MEAN_MOTION_DOT":"-0.00715847","REV_AT_EPOCH":"130","BSTAR":"-0.00705330000000","MEAN_ANOMALY":"15.5084","CLASSIFICATION_TYPE":"U","INCLINATION":"53.2174","SEMIMAJOR_AXIS":"6744.258","LAUNCH_DATE":"2022-04-21","EPHEMERIS_TYPE":"0","TLE_LINE2":"2 52303  53.2174 141.1485 0001220  55.0434  15.5084 15.67478275  1306","ARG_OF_PERICENTER":"55.0434","TLE_LINE1":"1 52303U 22041AU  22158.91667824 -.00715847  00000-0 -70533-2 0  9997","CENTER_NAME":"EARTH","DECAY_DATE":null,"NORAD_CAT_ID":"52303","PERIOD":"91.867","ECCENTRICITY":"0.00012200","ELEMENT_SET_NO":"999","TIME_SYSTEM":"UTC","RCS_SIZE":"LARGE","MEAN_MOTION_DDOT":"0.0000000000000","OBJECT_ID":"2022-041AU","GP_ID":"205598269","FILE":"3485136","EPOCH":"2022-06-07T22:00:00.999936","MEAN_ELEMENT_THEORY":"SGP4","RA_OF_ASC_NODE":"141.1485","OBJECT_NAME":"STARLINK-3742","SITE":"AFETR","OBJECT_TYPE":"PAYLOAD"},{"FILE":"3485136","GP_ID":"205598469","OBJECT_TYPE":"PAYLOAD","SITE":"AFETR","OBJECT_NAME":"STARLINK-3744","RA_OF_ASC_NODE":"141.0419","MEAN_ELEMENT_THEORY":"SGP4","EPOCH":"2022-06-07T22:00:00.999936","TIME_SYSTEM":"UTC","ELEMENT_SET_NO":"999","ECCENTRICITY":"0.00038740","OBJECT_ID":"2022-041AV","MEAN_MOTION_DDOT":"0.0000000000000","RCS_SIZE":"LARGE","TLE_LINE2":"2 52304  53.2156 141.0419 0003874   1.9824 110.5115 15.73212672  1308","EPHEMERIS_TYPE":"0","LAUNCH_DATE":"2022-04-21","SEMIMAJOR_AXIS":"6727.859","INCLINATION":"53.2156","PERIOD":"91.532","NORAD_CAT_ID":"52304","DECAY_DATE":null,"CENTER_NAME":"EARTH","TLE_LINE1":"1 52304U 22041AV  22158.91667824  .00028657  00000-0  20774-3 0  9995","ARG_OF_PERICENTER":"1.9824","PERIAPSIS":"347.118","MEAN_MOTION":"15.73212672","REF_FRAME":"TEME","COUNTRY_CODE":"US","CLASSIFICATION_TYPE":"U","BSTAR":"0.00020774000000","MEAN_ANOMALY":"110.5115","MEAN_MOTION_DOT":"0.00028657","REV_AT_EPOCH":"130","APOAPSIS":"352.330"},{"GP_ID":"205598366","FILE":"3485136","RA_OF_ASC_NODE":"141.1523","MEAN_ELEMENT_THEORY":"SGP4","EPOCH":"2022-06-07T22:00:00.999936","OBJECT_TYPE":"PAYLOAD","SITE":"AFETR","OBJECT_NAME":"STARLINK-3724","ELEMENT_SET_NO":"999","ECCENTRICITY":"0.00011340","TIME_SYSTEM":"UTC","RCS_SIZE":"LARGE","OBJECT_ID":"2022-041AW","MEAN_MOTION_DDOT":"0.0000000000000","INCLINATION":"53.2174","TLE_LINE2":"2 52305  53.2174 141.1523 0001134  62.8034   9.0614 15.67487594  1308","LAUNCH_DATE":"2022-04-21","SEMIMAJOR_AXIS":"6744.231","EPHEMERIS_TYPE":"0","CENTER_NAME":"EARTH","ARG_OF_PERICENTER":"62.8034","TLE_LINE1":"1 52305U 22041AW  22158.91667824 -.00715942  00000-0 -70518-2 0  9998","PERIOD":"91.867","NORAD_CAT_ID":"52305","DECAY_DATE":null,"MEAN_MOTION":"15.67487594","REF_FRAME":"TEME","COUNTRY_CODE":"US","PERIAPSIS":"365.331","BSTAR":"-0.00705180000000","CLASSIFICATION_TYPE":"U","MEAN_ANOMALY":"9.0614","MEAN_MOTION_DOT":"-0.00715942","REV_AT_EPOCH":"130","APOAPSIS":"366.861"}];
